{
  "type": "FeatureCollection",
  "features": [
    {
      "type": "Feature",
      "properties": {
        "norad_id": 33805,
        "name": "COSMOS 2251 DEB",
        "group": "cosmos-2251-debris",
        "lat": -63.84332127171615,
        "lon": -77.02096739173771,
        "alt_km": 740.7031296563691,
        "timestamp": "2025-12-08T21:31:05.059035+00:00",
        "meta_object_name": "COSMOS 2251 DEB",
        "meta_object_id": "1993-036AW",
        "meta_epoch": "2025-12-08T08:39:43.579584",
        "meta_mean_motion": 14.57841007,
        "meta_eccentricity": 0.00603531,
        "meta_inclination": 74.0317,
        "meta_ra_of_asc_node": 319.661,
        "meta_arg_of_pericenter": 149.8952,
        "meta_mean_anomaly": 210.5705,
        "meta_ephemeris_type": 0,
        "meta_classification_type": "U",
        "meta_norad_cat_id": 33805,
        "meta_element_set_no": 999,
        "meta_rev_at_epoch": 89163,
        "meta_bstar": 0.00044804536,
        "meta_mean_motion_dot": 2.074e-05,
        "meta_mean_motion_ddot": 0,
        "tle_line1": "1 33805U 93036AW  25342.36092106  .00002074  00000+0  44805-3 0  9999",
        "tle_line2": "2 33805  74.0317 319.6610 0060353 149.8952 210.5705 14.57841007891638"
      },
      "geometry": {
        "type": "Point",
        "coordinates": [
          -77.02096739173771,
          -63.84332127171615
        ]
      }
    },
    {
      "type": "Feature",
      "properties": {
        "norad_id": 33811,
        "name": "COSMOS 2251 DEB",
        "group": "cosmos-2251-debris",
        "lat": -42.355309845553556,
        "lon": 145.9565441211016,
        "alt_km": 578.3343840511352,
        "timestamp": "2025-12-08T21:31:05.059046+00:00",
        "meta_object_name": "COSMOS 2251 DEB",
        "meta_object_id": "1993-036BC",
        "meta_epoch": "2025-12-08T14:40:54.177024",
        "meta_mean_motion": 15.05062931,
        "meta_eccentricity": 0.00307176,
        "meta_inclination": 73.8382,
        "meta_ra_of_asc_node": 311.2158,
        "meta_arg_of_pericenter": 32.6099,
        "meta_mean_anomaly": 89.1941,
        "meta_ephemeris_type": 0,
        "meta_classification_type": "U",
        "meta_norad_cat_id": 33811,
        "meta_element_set_no": 999,
        "meta_rev_at_epoch": 89956,
        "meta_bstar": 0.0016991803,
        "meta_mean_motion_dot": 0.00024455,
        "meta_mean_motion_ddot": 0,
        "tle_line1": "1 33811U 93036BC  25342.61173816  .00024455  00000+0  16992-2 0  9994",
        "tle_line2": "2 33811  73.8382 311.2158 0030717  32.6099  89.1941 15.05062931899568"
      },
      "geometry": {
        "type": "Point",
        "coordinates": [
          145.9565441211016,
          -42.355309845553556
        ]
      }
    },
    {
      "type": "Feature",
      "properties": {
        "norad_id": 33815,
        "name": "COSMOS 2251 DEB",
        "group": "cosmos-2251-debris",
        "lat": 51.756398554104,
        "lon": -16.77294054529456,
        "alt_km": 511.5518029632167,
        "timestamp": "2025-12-08T21:31:05.059058+00:00",
        "meta_object_name": "COSMOS 2251 DEB",
        "meta_object_id": "1993-036BG",
        "meta_epoch": "2025-12-08T14:54:08.664768",
        "meta_mean_motion": 15.16556721,
        "meta_eccentricity": 0.00030931,
        "meta_inclination": 73.953,
        "meta_ra_of_asc_node": 185.2243,
        "meta_arg_of_pericenter": 233.3774,
        "meta_mean_anomaly": 187.4365,
        "meta_ephemeris_type": 0,
        "meta_classification_type": "U",
        "meta_norad_cat_id": 33815,
        "meta_element_set_no": 999,
        "meta_rev_at_epoch": 88308,
        "meta_bstar": 0.0068313827,
        "meta_mean_motion_dot": 0.00135864,
        "meta_mean_motion_ddot": 0,
        "tle_line1": "1 33815U 93036BG  25342.62093362  .00135864  00000+0  68314-2 0  9998",
        "tle_line2": "2 33815  73.9530 185.2243 0003093 233.3774 187.4365 15.16556721883088"
      },
      "geometry": {
        "type": "Point",
        "coordinates": [
          -16.77294054529456,
          51.756398554104
        ]
      }
    },
    {
      "type": "Feature",
      "properties": {
        "norad_id": 33816,
        "name": "COSMOS 2251 DEB",
        "group": "cosmos-2251-debris",
        "lat": 53.639720381413674,
        "lon": 135.01626306742594,
        "alt_km": 876.7504284550787,
        "timestamp": "2025-12-08T21:31:05.059079+00:00",
        "meta_object_name": "COSMOS 2251 DEB",
        "meta_object_id": "1993-036BH",
        "meta_epoch": "2025-12-08T12:33:14.760000",
        "meta_mean_motion": 13.81775062,
        "meta_eccentricity": 0.02649542,
        "meta_inclination": 73.8945,
        "meta_ra_of_asc_node": 112.5423,
        "meta_arg_of_pericenter": 126.2947,
        "meta_mean_anomaly": 236.2965,
        "meta_ephemeris_type": 0,
        "meta_classification_type": "U",
        "meta_norad_cat_id": 33816,
        "meta_element_set_no": 999,
        "meta_rev_at_epoch": 84615,
        "meta_bstar": 0.00095747383,
        "meta_mean_motion_dot": 1.317e-05,
        "meta_mean_motion_ddot": 0,
        "tle_line1": "1 33816U 93036BH  25342.52308750  .00001317  00000+0  95747-3 0  9994",
        "tle_line2": "2 33816  73.8945 112.5423 0264954 126.2947 236.2965 13.81775062846155"
      },
      "geometry": {
        "type": "Point",
        "coordinates": [
          135.01626306742594,
          53.639720381413674
        ]
      }
    },
    {
      "type": "Feature",
      "properties": {
        "norad_id": 33818,
        "name": "COSMOS 2251 DEB",
        "group": "cosmos-2251-debris",
        "lat": 72.4910327171365,
        "lon": -120.9860320084898,
        "alt_km": 519.8293441658716,
        "timestamp": "2025-12-08T21:31:05.059096+00:00",
        "meta_object_name": "COSMOS 2251 DEB",
        "meta_object_id": "1993-036BK",
        "meta_epoch": "2025-12-08T15:04:24.092832",
        "meta_mean_motion": 15.12003954,
        "meta_eccentricity": 0.00280454,
        "meta_inclination": 74.0753,
        "meta_ra_of_asc_node": 174.7365,
        "meta_arg_of_pericenter": 164.9553,
        "meta_mean_anomaly": 256.9801,
        "meta_ephemeris_type": 0,
        "meta_classification_type": "U",
        "meta_norad_cat_id": 33818,
        "meta_element_set_no": 999,
        "meta_rev_at_epoch": 89800,
        "meta_bstar": 0.0026769312,
        "meta_mean_motion_dot": 0.00046674,
        "meta_mean_motion_ddot": 0,
        "tle_line1": "1 33818U 93036BK  25342.62805663  .00046674  00000+0  26769-2 0  9994",
        "tle_line2": "2 33818  74.0753 174.7365 0028045 164.9553 256.9801 15.12003954898002"
      },
      "geometry": {
        "type": "Point",
        "coordinates": [
          -120.9860320084898,
          72.4910327171365
        ]
      }
    },
    {
      "type": "Feature",
      "properties": {
        "norad_id": 33819,
        "name": "COSMOS 2251 DEB",
        "group": "cosmos-2251-debris",
        "lat": -51.105604189282715,
        "lon": 57.37474109216031,
        "alt_km": 848.4046284103633,
        "timestamp": "2025-12-08T21:31:05.059107+00:00",
        "meta_object_name": "COSMOS 2251 DEB",
        "meta_object_id": "1993-036BL",
        "meta_epoch": "2025-12-08T15:30:26.070048",
        "meta_mean_motion": 14.32202434,
        "meta_eccentricity": 0.00889296,
        "meta_inclination": 74.1791,
        "meta_ra_of_asc_node": 217.25,
        "meta_arg_of_pericenter": 79.8288,
        "meta_mean_anomaly": 302.8694,
        "meta_ephemeris_type": 0,
        "meta_classification_type": "U",
        "meta_norad_cat_id": 33819,
        "meta_element_set_no": 999,
        "meta_rev_at_epoch": 87437,
        "meta_bstar": 0.0010926536,
        "meta_mean_motion_dot": 3.052e-05,
        "meta_mean_motion_ddot": 0,
        "tle_line1": "1 33819U 93036BL  25342.64613507  .00003052  00000+0  10927-2 0  9993",
        "tle_line2": "2 33819  74.1791 217.2500 0088929  79.8288 302.8694 14.32202434874376"
      },
      "geometry": {
        "type": "Point",
        "coordinates": [
          57.37474109216031,
          -51.105604189282715
        ]
      }
    },
    {
      "type": "Feature",
      "properties": {
        "norad_id": 33821,
        "name": "COSMOS 2251 DEB",
        "group": "cosmos-2251-debris",
        "lat": 61.54446471899252,
        "lon": -177.14035382500566,
        "alt_km": 502.2175391625369,
        "timestamp": "2025-12-08T21:31:05.059118+00:00",
        "meta_object_name": "COSMOS 2251 DEB",
        "meta_object_id": "1993-036BN",
        "meta_epoch": "2025-12-08T13:21:14.099616",
        "meta_mean_motion": 15.24922885,
        "meta_eccentricity": 0.0052953,
        "meta_inclination": 74.0296,
        "meta_ra_of_asc_node": 151.6782,
        "meta_arg_of_pericenter": 186.2175,
        "meta_mean_anomaly": 173.8375,
        "meta_ephemeris_type": 0,
        "meta_classification_type": "U",
        "meta_norad_cat_id": 33821,
        "meta_element_set_no": 999,
        "meta_rev_at_epoch": 74937,
        "meta_bstar": 0.0014656683,
        "meta_mean_motion_dot": 0.00038141,
        "meta_mean_motion_ddot": 0,
        "tle_line1": "1 33821U 93036BN  25342.55641319  .00038141  00000+0  14657-2 0  9999",
        "tle_line2": "2 33821  74.0296 151.6782 0052953 186.2175 173.8375 15.24922885749371"
      },
      "geometry": {
        "type": "Point",
        "coordinates": [
          -177.14035382500566,
          61.54446471899252
        ]
      }
    }
  ]
}